Title,Type,Hotspot,Latitude,Longitude,MAC,Zone,Street,Parish
Wi-Fi Hotspot at Taylor Mount,Public,Yes,41.13836,-8.638743,4c:d0:9e:37:1b:58,City Center,Rua de Dom Pedro V,Parish of Santo Ildefonso
Wi-Fi Hotspot at Lee Path,Private,Yes,41.251372,-8.543107,00:38:a5:04:f3:a9,City Center,Rua do Bonfim,Parish of Cedofeita
Wi-Fi Hotspot at Jones Square,Public,Yes,41.183545,-8.525145,c4:ca:1c:dc:37:29,City Park,Rua do Bonfim,Parish of Cedofeita
Wi-Fi Hotspot at Michele Common,Public,Yes,41.242768,-8.568428,0a:10:e3:97:79:42,City Center,Avenida dos Aliados,Parish of Lordelo do Ouro
Wi-Fi Hotspot at Zachary Plain,Private,Yes,41.250744,-8.583828,aa:25:46:ac:d2:11,Suburbs,Rua do Bonfim,Parish of Massarelos
Wi-Fi Hotspot at Wilkerson Mountains,Public,Yes,41.229314,-8.655754,c2:03:3f:d8:f4:c4,City Park,Rua de Dom Pedro V,Parish of Cedofeita
Wi-Fi Hotspot at Parsons Wells,Public,Yes,41.117638,-8.560199,f2:55:a6:24:71:70,Suburbs,Avenida dos Aliados,Parish of Santo Ildefonso
Wi-Fi Hotspot at Herrera Spring,Private,Yes,41.257002,-8.522736,56:00:34:17:13:08,Suburbs,Rua de Santa Catarina,Parish of Lordelo do Ouro
Wi-Fi Hotspot at Joshua Mountains,Public,Yes,41.220035,-8.648278,76:de:a8:07:53:48,Residential Area,Rua de Dom Pedro V,Parish of Cedofeita
Wi-Fi Hotspot at Wright Grove,Public,Yes,41.299607,-8.604783,34:fb:f5:e8:37:75,City Center,Avenida dos Aliados,Parish of Massarelos
Wi-Fi Hotspot at Nelson Ramp,Private,Yes,41.181667,-8.619992,be:26:0d:ee:49:30,City Center,Avenida dos Aliados,Parish of Cedofeita
Wi-Fi Hotspot at Justin Neck,Public,Yes,41.201057,-8.618612,aa:d5:ee:d2:ef:03,City Center,Rua de Santa Catarina,Parish of Santo Ildefonso
Wi-Fi Hotspot at William Lakes,Private,Yes,41.288889,-8.59244,4a:07:aa:c2:c9:ba,Suburbs,Avenida da Boavista,Parish of Massarelos
Wi-Fi Hotspot at Duncan Inlet,Public,Yes,41.235063,-8.63784,ae:74:97:8e:fd:3b,City Center,Avenida dos Aliados,Parish of Santo Ildefonso
Wi-Fi Hotspot at Morris Landing,Public,Yes,41.269,-8.546834,2e:08:61:c2:f0:30,City Park,Rua do Bonfim,Parish of Santo Ildefonso
Wi-Fi Hotspot at Roberts Square,Public,Yes,41.175622,-8.652313,60:57:5c:fe:ca:d1,City Center,Avenida da Boavista,Parish of Massarelos
Wi-Fi Hotspot at Gloria Vista,Public,Yes,41.11761,-8.630249,16:a7:20:c2:f6:03,Suburbs,Rua de Santa Catarina,Parish of Lordelo do Ouro
Wi-Fi Hotspot at Ryan Expressway,Public,Yes,41.164073,-8.657204,1c:c0:12:81:17:71,Residential Area,Rua de Santa Catarina,Parish of Massarelos
Wi-Fi Hotspot at James Shore,Public,Yes,41.166891,-8.689041,d2:55:1d:ef:00:6c,Residential Area,Rua do Bonfim,Parish of Santo Ildefonso
Wi-Fi Hotspot at Melissa Bypass,Private,Yes,41.162602,-8.578564,58:05:5b:b8:f4:99,Suburbs,Avenida dos Aliados,Parish of Cedofeita
Wi-Fi Hotspot at Craig Spur,Private,Yes,41.172652,-8.667856,40:8f:5b:1a:6e:00,Residential Area,Rua do Bonfim,Parish of Santo Ildefonso
Wi-Fi Hotspot at Judy Mill,Private,Yes,41.14373,-8.529158,60:42:20:07:b7:42,Downtown,Avenida da Boavista,Parish of Cedofeita
Wi-Fi Hotspot at Humphrey Cliff,Private,Yes,41.255022,-8.623225,f4:bd:11:51:31:43,Suburbs,Rua de Dom Pedro V,Parish of Santo Ildefonso
Wi-Fi Hotspot at Kramer Summit,Public,Yes,41.25814,-8.684756,52:55:b6:64:44:f5,Downtown,Rua de Santa Catarina,Parish of Massarelos
Wi-Fi Hotspot at Ashley Forges,Public,Yes,41.152786,-8.649717,c4:86:81:f2:18:f4,Suburbs,Rua de Dom Pedro V,Parish of Santo Ildefonso
Wi-Fi Hotspot at Mcdonald Green,Public,Yes,41.113945,-8.580927,4e:e4:2e:bc:de:ae,Residential Area,Rua de Dom Pedro V,Parish of Massarelos
Wi-Fi Hotspot at Patrick Valley,Private,Yes,41.296025,-8.684527,e4:20:96:13:8d:fe,Suburbs,Rua de Dom Pedro V,Parish of Santo Ildefonso
Wi-Fi Hotspot at Henson Inlet,Public,Yes,41.196537,-8.549416,4e:e7:36:67:dc:98,City Center,Rua do Bonfim,Parish of Massarelos
Wi-Fi Hotspot at Figueroa Flat,Public,Yes,41.274379,-8.577761,f0:84:68:dd:c8:eb,Residential Area,Avenida dos Aliados,Parish of Cedofeita
Wi-Fi Hotspot at Williams Heights,Private,Yes,41.23459,-8.567244,30:37:2d:02:2f:05,Downtown,Avenida dos Aliados,Parish of Massarelos
Wi-Fi Hotspot at Robert Harbors,Public,Yes,41.295733,-8.596274,0e:d1:f2:b3:33:2f,Residential Area,Avenida dos Aliados,Parish of Santo Ildefonso
Wi-Fi Hotspot at Walter Roads,Public,Yes,41.105654,-8.509989,00:f3:fe:a5:a3:14,City Park,Avenida da Boavista,Parish of Lordelo do Ouro
Wi-Fi Hotspot at Sandra Locks,Public,Yes,41.105099,-8.678937,72:79:79:3a:c8:f1,Suburbs,Rua de Santa Catarina,Parish of Cedofeita
Wi-Fi Hotspot at Justin Cape,Public,Yes,41.206389,-8.691386,be:de:0d:aa:04:aa,Downtown,Rua de Dom Pedro V,Parish of Massarelos
Wi-Fi Hotspot at Rose Hills,Public,Yes,41.288305,-8.54608,52:c4:f3:2e:0e:ff,City Park,Avenida da Boavista,Parish of Santo Ildefonso
Wi-Fi Hotspot at Dunlap Wall,Private,Yes,41.18654,-8.690404,18:5f:07:47:ba:c2,City Center,Avenida da Boavista,Parish of Cedofeita
Wi-Fi Hotspot at Solomon River,Private,Yes,41.296621,-8.649497,92:68:9f:48:80:f9,Downtown,Rua de Dom Pedro V,Parish of Cedofeita
Wi-Fi Hotspot at Matthew Prairie,Private,Yes,41.277385,-8.694019,9e:1f:b3:7a:8e:e0,Downtown,Avenida dos Aliados,Parish of Cedofeita
Wi-Fi Hotspot at Michael Key,Private,Yes,41.286286,-8.519948,c6:b0:4c:b3:2c:6b,Suburbs,Rua de Santa Catarina,Parish of Lordelo do Ouro
Wi-Fi Hotspot at Austin Parkways,Public,Yes,41.130251,-8.615413,94:10:a4:39:61:0d,Downtown,Rua do Bonfim,Parish of Lordelo do Ouro
Wi-Fi Hotspot at Fernandez Lock,Public,Yes,41.140365,-8.537601,90:5d:9e:23:6a:0f,City Center,Avenida da Boavista,Parish of Santo Ildefonso
Wi-Fi Hotspot at Torres Plains,Private,Yes,41.181216,-8.686987,02:26:75:1b:ca:92,Downtown,Avenida da Boavista,Parish of Santo Ildefonso
Wi-Fi Hotspot at Christina Mountain,Public,Yes,41.214473,-8.636078,a2:e3:98:6c:cd:12,Suburbs,Avenida dos Aliados,Parish of Massarelos
Wi-Fi Hotspot at Amanda Ranch,Private,Yes,41.266152,-8.617321,0e:da:e3:2b:58:5c,City Center,Rua do Bonfim,Parish of Massarelos
Wi-Fi Hotspot at Jodi Mountain,Public,Yes,41.288008,-8.532845,be:98:63:2a:67:00,City Park,Avenida dos Aliados,Parish of Cedofeita
Wi-Fi Hotspot at Rebecca Hollow,Private,Yes,41.17858,-8.645336,de:4b:c1:c7:26:67,Residential Area,Avenida dos Aliados,Parish of Lordelo do Ouro
Wi-Fi Hotspot at Michele Cove,Public,Yes,41.108162,-8.572713,6c:85:b3:d0:7f:fc,City Park,Rua do Bonfim,Parish of Cedofeita
Wi-Fi Hotspot at Christine Springs,Public,Yes,41.101931,-8.657092,4c:75:6e:11:c8:0e,City Park,Avenida da Boavista,Parish of Santo Ildefonso
Wi-Fi Hotspot at Wilson Green,Private,Yes,41.197755,-8.611557,b2:8e:9b:05:ec:29,Suburbs,Rua de Dom Pedro V,Parish of Santo Ildefonso
Wi-Fi Hotspot at Walker Brooks,Public,Yes,41.141473,-8.591405,1a:ad:84:f3:85:db,City Park,Avenida da Boavista,Parish of Lordelo do Ouro
Wi-Fi Hotspot at Mooney Ferry,Public,Yes,41.118808,-8.587369,f4:14:46:c1:de:2a,City Park,Rua do Bonfim,Parish of Cedofeita
Wi-Fi Hotspot at Jessica View,Public,Yes,41.296568,-8.672807,a0:08:09:68:da:98,City Center,Rua do Bonfim,Parish of Massarelos
Wi-Fi Hotspot at Obrien Corner,Private,Yes,41.210067,-8.563667,a4:19:80:fd:a9:54,Downtown,Avenida da Boavista,Parish of Lordelo do Ouro
Wi-Fi Hotspot at Patrick Summit,Public,Yes,41.227842,-8.516987,8e:3d:cb:cc:43:32,Downtown,Rua de Santa Catarina,Parish of Lordelo do Ouro
Wi-Fi Hotspot at Hardin Estates,Private,Yes,41.15396,-8.554085,26:ff:e4:3a:d7:df,Residential Area,Avenida dos Aliados,Parish of Lordelo do Ouro
Wi-Fi Hotspot at Weber Squares,Public,Yes,41.265712,-8.540708,e8:b3:b7:32:30:f5,City Park,Avenida da Boavista,Parish of Santo Ildefonso
Wi-Fi Hotspot at Andrew Road,Public,Yes,41.130782,-8.687599,96:8b:9c:5c:25:6b,City Park,Rua de Dom Pedro V,Parish of Cedofeita
Wi-Fi Hotspot at Reid Key,Private,Yes,41.193503,-8.685521,f0:4b:a4:3a:bc:5f,Suburbs,Rua do Bonfim,Parish of Lordelo do Ouro
Wi-Fi Hotspot at Albert Squares,Public,Yes,41.274676,-8.588629,1a:86:7e:33:9e:42,Suburbs,Avenida da Boavista,Parish of Santo Ildefonso
Wi-Fi Hotspot at Eugene Extension,Private,Yes,41.251823,-8.694494,4a:bc:0e:df:32:5f,Residential Area,Rua do Bonfim,Parish of Cedofeita
Wi-Fi Hotspot at Kelly Fields,Public,Yes,41.224636,-8.674863,38:6b:60:18:b1:6e,Downtown,Rua do Bonfim,Parish of Cedofeita
Wi-Fi Hotspot at Crystal Isle,Public,Yes,41.167746,-8.60727,7a:be:73:cd:ee:ae,City Park,Rua de Santa Catarina,Parish of Lordelo do Ouro
Wi-Fi Hotspot at Amanda Gardens,Public,Yes,41.196994,-8.556738,be:9b:d8:d5:28:b8,Downtown,Rua do Bonfim,Parish of Santo Ildefonso
Wi-Fi Hotspot at James Terrace,Public,Yes,41.254539,-8.58832,96:d3:d0:d4:d3:3d,Residential Area,Rua de Dom Pedro V,Parish of Massarelos
Wi-Fi Hotspot at Terri Grove,Private,Yes,41.147548,-8.589544,30:78:b4:99:40:59,City Park,Avenida dos Aliados,Parish of Cedofeita
Wi-Fi Hotspot at Joseph Drives,Private,Yes,41.111141,-8.635211,86:f1:76:1c:d4:d0,Residential Area,Rua de Santa Catarina,Parish of Cedofeita
Wi-Fi Hotspot at Gary Plaza,Public,Yes,41.115107,-8.57274,ba:b2:b6:70:bc:29,City Park,Avenida dos Aliados,Parish of Massarelos
Wi-Fi Hotspot at Becky Key,Public,Yes,41.252366,-8.681766,3c:9d:65:a0:d4:0e,Suburbs,Rua de Dom Pedro V,Parish of Santo Ildefonso
Wi-Fi Hotspot at Jessica Isle,Private,Yes,41.179744,-8.687199,08:5d:f0:04:60:04,Residential Area,Rua de Dom Pedro V,Parish of Massarelos
Wi-Fi Hotspot at Turner Village,Private,Yes,41.150814,-8.616914,ca:d6:27:bb:67:93,Suburbs,Rua de Dom Pedro V,Parish of Santo Ildefonso
Wi-Fi Hotspot at Johnson Meadows,Private,Yes,41.188221,-8.554108,84:75:42:fd:5f:ea,Suburbs,Rua de Santa Catarina,Parish of Lordelo do Ouro
Wi-Fi Hotspot at Smith Heights,Private,Yes,41.183106,-8.658335,d6:56:a2:6c:79:19,City Center,Rua do Bonfim,Parish of Massarelos
Wi-Fi Hotspot at Kelly Mall,Private,Yes,41.123573,-8.508182,da:8c:05:54:52:95,City Park,Avenida da Boavista,Parish of Cedofeita
Wi-Fi Hotspot at Moore Radial,Private,Yes,41.112572,-8.617056,b6:b7:6e:0c:34:94,Downtown,Avenida da Boavista,Parish of Lordelo do Ouro
Wi-Fi Hotspot at Robinson Alley,Public,Yes,41.154078,-8.643326,7a:36:52:bb:ce:b6,City Park,Rua de Dom Pedro V,Parish of Santo Ildefonso
Wi-Fi Hotspot at David Key,Public,Yes,41.150574,-8.515138,c0:3b:08:a3:8c:de,City Park,Avenida dos Aliados,Parish of Massarelos
Wi-Fi Hotspot at Vanessa Route,Private,Yes,41.290698,-8.516499,a4:56:4f:1c:07:ed,Residential Area,Rua do Bonfim,Parish of Lordelo do Ouro
Wi-Fi Hotspot at Smith Mountain,Public,Yes,41.257207,-8.552009,fa:78:bd:61:93:2c,Suburbs,Rua de Dom Pedro V,Parish of Santo Ildefonso
Wi-Fi Hotspot at Bradley Branch,Public,Yes,41.103428,-8.591339,ca:59:1e:36:6c:36,Residential Area,Rua de Santa Catarina,Parish of Massarelos
Wi-Fi Hotspot at Jackson Dam,Public,Yes,41.295657,-8.671631,d2:ec:a9:4b:00:4e,City Park,Rua de Dom Pedro V,Parish of Santo Ildefonso
Wi-Fi Hotspot at Haney Lodge,Public,Yes,41.210068,-8.505772,8c:3c:a3:28:6e:27,City Park,Rua de Dom Pedro V,Parish of Lordelo do Ouro
Wi-Fi Hotspot at Carter Oval,Private,Yes,41.174716,-8.622619,4e:c7:2c:fb:df:48,Suburbs,Avenida dos Aliados,Parish of Cedofeita
Wi-Fi Hotspot at Johnson Crest,Private,Yes,41.289349,-8.600101,7e:43:61:f2:59:3b,City Park,Avenida da Boavista,Parish of Cedofeita
Wi-Fi Hotspot at Karla Streets,Public,Yes,41.282351,-8.577129,b4:e4:c2:e6:ab:56,City Center,Avenida da Boavista,Parish of Santo Ildefonso
Wi-Fi Hotspot at Angela Lights,Private,Yes,41.178091,-8.554683,ea:79:4d:99:1f:a5,Downtown,Rua de Santa Catarina,Parish of Massarelos
Wi-Fi Hotspot at Sampson Extension,Private,Yes,41.126654,-8.639808,60:3b:45:99:42:c9,Downtown,Rua do Bonfim,Parish of Santo Ildefonso
Wi-Fi Hotspot at Johnson Meadow,Private,Yes,41.177604,-8.580025,bc:f0:3b:df:3e:e1,Downtown,Avenida da Boavista,Parish of Lordelo do Ouro
Wi-Fi Hotspot at Grace Trail,Private,Yes,41.142775,-8.534808,b6:6d:1d:38:36:3b,Downtown,Avenida dos Aliados,Parish of Massarelos
Wi-Fi Hotspot at Anderson Port,Public,Yes,41.136219,-8.629687,04:da:02:29:0d:5b,City Park,Avenida dos Aliados,Parish of Lordelo do Ouro
Wi-Fi Hotspot at Jessica Unions,Public,Yes,41.283085,-8.620913,46:55:49:eb:59:25,City Park,Rua do Bonfim,Parish of Cedofeita
Wi-Fi Hotspot at Jeremiah Prairie,Public,Yes,41.130627,-8.56115,b0:24:51:77:3f:3d,City Park,Rua do Bonfim,Parish of Massarelos
Wi-Fi Hotspot at Woods Terrace,Private,Yes,41.163938,-8.557092,d0:20:35:41:24:36,Downtown,Rua do Bonfim,Parish of Massarelos
Wi-Fi Hotspot at Ashley Isle,Private,Yes,41.215453,-8.509301,0e:5c:cb:a7:93:16,City Park,Avenida dos Aliados,Parish of Massarelos
Wi-Fi Hotspot at Lori Hill,Private,Yes,41.140092,-8.562486,d4:25:f4:fc:3e:f7,Downtown,Rua de Dom Pedro V,Parish of Cedofeita
Wi-Fi Hotspot at Herman Flats,Public,Yes,41.179161,-8.521076,9c:06:80:d1:43:b4,Downtown,Avenida da Boavista,Parish of Massarelos
Wi-Fi Hotspot at Parker Manor,Private,Yes,41.262829,-8.686528,1c:cf:99:27:2e:bb,City Park,Avenida dos Aliados,Parish of Lordelo do Ouro
Wi-Fi Hotspot at Daniel Cliffs,Public,Yes,41.143141,-8.616718,88:24:53:e3:04:f6,Residential Area,Avenida dos Aliados,Parish of Santo Ildefonso
Wi-Fi Hotspot at Reynolds Dale,Public,Yes,41.206043,-8.55739,26:b8:64:59:a5:f5,City Center,Avenida da Boavista,Parish of Lordelo do Ouro
Wi-Fi Hotspot at Johnson Views,Private,Yes,41.220835,-8.544927,18:b9:87:f7:ab:0f,City Park,Rua do Bonfim,Parish of Lordelo do Ouro
Wi-Fi Hotspot at Jones Highway,Public,Yes,41.288498,-8.621555,9e:9d:fe:89:88:bc,City Center,Avenida da Boavista,Parish of Cedofeita
Wi-Fi Hotspot at Eric Lakes,Public,Yes,41.121728,-8.649451,9c:f7:c6:a9:ed:53,Suburbs,Avenida dos Aliados,Parish of Massarelos
Wi-Fi Hotspot at Jacqueline Springs,Private,Yes,41.13693,-8.550505,6e:fd:97:17:61:32,Suburbs,Rua de Santa Catarina,Parish of Lordelo do Ouro
Wi-Fi Hotspot at Candace Mission,Private,Yes,41.183447,-8.596477,d6:60:23:d9:62:f1,Suburbs,Avenida dos Aliados,Parish of Lordelo do Ouro
Wi-Fi Hotspot at Cox Trace,Public,Yes,41.142357,-8.550824,bc:98:e8:90:f8:ea,City Center,Rua de Dom Pedro V,Parish of Massarelos
Wi-Fi Hotspot at Adam Villages,Private,Yes,41.18685,-8.544714,12:0e:87:00:aa:ed,City Park,Avenida dos Aliados,Parish of Lordelo do Ouro
Wi-Fi Hotspot at Clark Squares,Private,Yes,41.222501,-8.556218,a0:0d:09:b7:a3:e5,Downtown,Rua de Dom Pedro V,Parish of Lordelo do Ouro
Wi-Fi Hotspot at Jennifer Springs,Private,Yes,41.10367,-8.563733,ba:d4:b2:4a:14:92,Residential Area,Avenida da Boavista,Parish of Santo Ildefonso
Wi-Fi Hotspot at Clark Knoll,Private,Yes,41.299621,-8.641358,6e:16:c4:2a:49:75,Downtown,Rua de Dom Pedro V,Parish of Massarelos
Wi-Fi Hotspot at Jackson Ridge,Private,Yes,41.170268,-8.631102,92:b4:f2:66:a6:4f,City Park,Rua do Bonfim,Parish of Lordelo do Ouro
Wi-Fi Hotspot at Ross Hill,Public,Yes,41.213433,-8.685599,62:32:36:eb:ce:3e,City Center,Rua do Bonfim,Parish of Cedofeita
Wi-Fi Hotspot at Briana Extensions,Private,Yes,41.275388,-8.520844,c8:5c:d0:fc:7c:42,City Center,Avenida dos Aliados,Parish of Santo Ildefonso
Wi-Fi Hotspot at Jonathan Rue,Private,Yes,41.22349,-8.597303,ee:77:e7:77:46:d3,Residential Area,Avenida dos Aliados,Parish of Lordelo do Ouro
Wi-Fi Hotspot at Tony Stream,Private,Yes,41.183047,-8.692564,2e:80:28:fb:e2:96,Suburbs,Rua de Dom Pedro V,Parish of Cedofeita
Wi-Fi Hotspot at Nash Stream,Public,Yes,41.231953,-8.602524,ac:a2:64:b2:56:8d,Downtown,Rua de Dom Pedro V,Parish of Massarelos
Wi-Fi Hotspot at Hernandez Place,Public,Yes,41.103332,-8.678138,5e:90:01:7c:00:06,Suburbs,Rua do Bonfim,Parish of Santo Ildefonso
Wi-Fi Hotspot at Hines Place,Private,Yes,41.181112,-8.627835,94:40:6d:03:d5:10,Downtown,Rua de Santa Catarina,Parish of Lordelo do Ouro
Wi-Fi Hotspot at Copeland Crossroad,Public,Yes,41.222486,-8.617207,f4:20:2a:77:50:be,Residential Area,Rua de Dom Pedro V,Parish of Massarelos
Wi-Fi Hotspot at Decker Court,Private,Yes,41.117653,-8.610511,dc:90:6d:46:97:fc,City Center,Rua do Bonfim,Parish of Massarelos
Wi-Fi Hotspot at Lopez Spring,Public,Yes,41.178407,-8.501555,bc:c6:0c:0c:8c:bf,City Center,Rua de Dom Pedro V,Parish of Santo Ildefonso
Wi-Fi Hotspot at James Lock,Private,Yes,41.171913,-8.503205,28:67:ee:13:4a:46,City Center,Avenida dos Aliados,Parish of Cedofeita
Wi-Fi Hotspot at Lopez Key,Public,Yes,41.274072,-8.549507,50:8e:ec:65:9d:dc,Residential Area,Rua de Santa Catarina,Parish of Santo Ildefonso
Wi-Fi Hotspot at Kenneth Circle,Private,Yes,41.217499,-8.663151,ce:25:51:fc:b3:be,City Park,Rua de Santa Catarina,Parish of Lordelo do Ouro
Wi-Fi Hotspot at Walker Spur,Private,Yes,41.135874,-8.669809,9e:da:f7:af:a8:0c,Suburbs,Avenida dos Aliados,Parish of Lordelo do Ouro
Wi-Fi Hotspot at Bass Bridge,Private,Yes,41.250011,-8.529936,64:b4:4c:ac:b3:27,City Park,Rua do Bonfim,Parish of Cedofeita
Wi-Fi Hotspot at Wise Terrace,Private,Yes,41.212068,-8.600373,aa:68:56:e7:4a:4b,Residential Area,Avenida da Boavista,Parish of Santo Ildefonso
Wi-Fi Hotspot at Steele Ports,Private,Yes,41.227715,-8.514149,e6:24:72:f4:2c:89,Suburbs,Rua de Dom Pedro V,Parish of Cedofeita
Wi-Fi Hotspot at Preston Mountain,Public,Yes,41.120203,-8.635119,78:94:c2:79:23:4d,Residential Area,Rua de Santa Catarina,Parish of Lordelo do Ouro
Wi-Fi Hotspot at Michael Falls,Private,Yes,41.121586,-8.692587,18:11:19:b1:56:d5,City Center,Rua do Bonfim,Parish of Cedofeita
Wi-Fi Hotspot at Alvarez Greens,Private,Yes,41.197165,-8.587108,56:95:52:86:6f:a7,Downtown,Avenida da Boavista,Parish of Massarelos
Wi-Fi Hotspot at Thomas Heights,Private,Yes,41.142463,-8.604714,88:0d:b2:0b:6f:81,Suburbs,Avenida da Boavista,Parish of Massarelos
Wi-Fi Hotspot at Hicks Parkways,Private,Yes,41.294636,-8.572439,08:b0:13:4b:ae:b3,Downtown,Rua de Santa Catarina,Parish of Cedofeita
Wi-Fi Hotspot at Chavez Manors,Public,Yes,41.298295,-8.529291,9e:bf:87:ff:e5:53,City Center,Avenida dos Aliados,Parish of Santo Ildefonso
Wi-Fi Hotspot at Charles Park,Public,Yes,41.162885,-8.509734,64:e9:95:e0:a9:d5,Suburbs,Rua de Santa Catarina,Parish of Cedofeita
Wi-Fi Hotspot at Cory Harbor,Private,Yes,41.299524,-8.690182,b2:ac:c4:ec:68:f7,Downtown,Rua do Bonfim,Parish of Santo Ildefonso
Wi-Fi Hotspot at Robert Mission,Public,Yes,41.271471,-8.681446,7e:7b:ec:e1:16:e7,Downtown,Rua de Santa Catarina,Parish of Lordelo do Ouro
Wi-Fi Hotspot at King Lodge,Private,Yes,41.140539,-8.513198,22:7f:60:90:6b:8f,Residential Area,Avenida dos Aliados,Parish of Lordelo do Ouro
Wi-Fi Hotspot at Malone Villages,Private,Yes,41.263839,-8.547548,e6:83:7b:d7:ac:e5,Downtown,Avenida da Boavista,Parish of Massarelos
Wi-Fi Hotspot at Baldwin Streets,Public,Yes,41.105678,-8.624789,74:e7:09:d7:b7:df,City Park,Rua do Bonfim,Parish of Lordelo do Ouro
Wi-Fi Hotspot at Rodriguez Isle,Public,Yes,41.191828,-8.563994,c6:01:7c:c2:f0:ec,Suburbs,Rua de Santa Catarina,Parish of Massarelos
Wi-Fi Hotspot at Perez Green,Private,Yes,41.103273,-8.635561,8a:7d:a8:31:0e:e2,Downtown,Rua de Dom Pedro V,Parish of Cedofeita
Wi-Fi Hotspot at Jennifer Prairie,Private,Yes,41.157598,-8.615601,f6:b5:4c:c4:ef:f1,City Park,Rua de Santa Catarina,Parish of Santo Ildefonso
Wi-Fi Hotspot at Diana Rapid,Public,Yes,41.162309,-8.674198,06:d4:2e:61:89:d6,Suburbs,Rua do Bonfim,Parish of Lordelo do Ouro
Wi-Fi Hotspot at Haynes Causeway,Private,Yes,41.122398,-8.622396,68:a6:ee:5f:7f:e1,Suburbs,Rua do Bonfim,Parish of Cedofeita
Wi-Fi Hotspot at Tristan Track,Public,Yes,41.222215,-8.561366,2c:f7:a2:c8:5f:ef,Downtown,Rua de Dom Pedro V,Parish of Santo Ildefonso
Wi-Fi Hotspot at Mayer Knoll,Private,Yes,41.132994,-8.697089,c8:ae:9e:a4:fe:d7,Suburbs,Rua de Dom Pedro V,Parish of Cedofeita
Wi-Fi Hotspot at Morgan Lane,Private,Yes,41.192777,-8.592319,8a:bb:7f:4a:b8:c4,City Park,Rua de Santa Catarina,Parish of Santo Ildefonso
Wi-Fi Hotspot at Parrish Extensions,Public,Yes,41.262996,-8.580047,84:14:82:38:87:0e,City Park,Rua de Santa Catarina,Parish of Massarelos
Wi-Fi Hotspot at Rice Radial,Private,Yes,41.172429,-8.643291,46:51:3e:0e:57:5d,City Park,Rua do Bonfim,Parish of Massarelos
Wi-Fi Hotspot at Steven Fords,Public,Yes,41.216698,-8.644748,f6:c6:27:6c:28:bf,Suburbs,Rua do Bonfim,Parish of Massarelos
Wi-Fi Hotspot at Gary Loaf,Public,Yes,41.225289,-8.506265,00:13:7b:40:d2:c2,Suburbs,Rua de Dom Pedro V,Parish of Santo Ildefonso
Wi-Fi Hotspot at Jason Garden,Private,Yes,41.107807,-8.593393,68:17:4c:ab:a2:7a,Residential Area,Rua de Dom Pedro V,Parish of Massarelos
Wi-Fi Hotspot at Hannah Fields,Private,Yes,41.182991,-8.672502,34:6c:49:1a:12:85,City Center,Avenida da Boavista,Parish of Lordelo do Ouro
Wi-Fi Hotspot at Fields Crest,Public,Yes,41.199731,-8.545963,30:f5:24:ee:d6:f9,City Park,Avenida da Boavista,Parish of Massarelos
Wi-Fi Hotspot at Christine Station,Public,Yes,41.232792,-8.578969,7c:c6:8c:49:67:56,Residential Area,Rua de Santa Catarina,Parish of Cedofeita
Wi-Fi Hotspot at Laura Trail,Public,Yes,41.139175,-8.519567,b6:db:df:e7:c2:98,Suburbs,Avenida da Boavista,Parish of Cedofeita
Wi-Fi Hotspot at Payne Trafficway,Private,Yes,41.250459,-8.593222,70:95:0a:49:48:a5,City Park,Avenida da Boavista,Parish of Lordelo do Ouro
Wi-Fi Hotspot at Vasquez Trail,Private,Yes,41.142625,-8.628174,4e:b2:a8:e9:11:ab,Residential Area,Avenida dos Aliados,Parish of Santo Ildefonso
Wi-Fi Hotspot at Gardner Street,Public,Yes,41.17175,-8.553497,a4:ec:46:93:eb:2d,Downtown,Rua de Dom Pedro V,Parish of Cedofeita
Wi-Fi Hotspot at Harris Station,Private,Yes,41.139625,-8.557414,96:5f:66:c5:ab:ea,Downtown,Rua de Santa Catarina,Parish of Massarelos
Wi-Fi Hotspot at George Throughway,Private,Yes,41.220594,-8.699348,e8:bd:ff:b1:1d:40,City Park,Avenida dos Aliados,Parish of Lordelo do Ouro
Wi-Fi Hotspot at Terry Circles,Public,Yes,41.2704,-8.618339,ce:d5:5c:71:a0:1b,City Park,Rua de Dom Pedro V,Parish of Santo Ildefonso
Wi-Fi Hotspot at Reyes Dale,Private,Yes,41.164162,-8.690495,3e:04:a6:8b:b2:61,City Park,Avenida da Boavista,Parish of Cedofeita
Wi-Fi Hotspot at Christina Row,Private,Yes,41.206349,-8.530494,86:47:10:ff:4a:b9,City Center,Avenida da Boavista,Parish of Lordelo do Ouro
Wi-Fi Hotspot at Morris Mountain,Private,Yes,41.130152,-8.567912,7c:b6:15:cb:df:55,Residential Area,Rua de Dom Pedro V,Parish of Lordelo do Ouro
Wi-Fi Hotspot at Robert Summit,Public,Yes,41.2285,-8.691543,8e:69:25:96:ed:99,City Center,Rua de Santa Catarina,Parish of Cedofeita
Wi-Fi Hotspot at Chelsea Meadow,Public,Yes,41.201183,-8.606184,94:3b:1e:87:bd:9e,Downtown,Rua do Bonfim,Parish of Santo Ildefonso
Wi-Fi Hotspot at Teresa Trace,Private,Yes,41.124621,-8.537802,06:3f:58:79:ad:8d,City Park,Rua de Dom Pedro V,Parish of Massarelos
Wi-Fi Hotspot at Austin Greens,Private,Yes,41.244572,-8.500398,44:26:b4:c6:d5:77,Residential Area,Avenida da Boavista,Parish of Santo Ildefonso
Wi-Fi Hotspot at Walker Road,Private,Yes,41.28884,-8.654897,9c:48:4e:ff:5d:4e,City Center,Avenida dos Aliados,Parish of Cedofeita
Wi-Fi Hotspot at Turner Valley,Private,Yes,41.175508,-8.612703,24:5d:65:b8:82:ff,City Park,Rua do Bonfim,Parish of Cedofeita
Wi-Fi Hotspot at Day Row,Private,Yes,41.11593,-8.500219,e0:88:42:c5:72:61,Residential Area,Rua de Dom Pedro V,Parish of Cedofeita
Wi-Fi Hotspot at George Haven,Private,Yes,41.222081,-8.681332,6c:43:74:6a:42:84,Residential Area,Rua de Santa Catarina,Parish of Cedofeita
Wi-Fi Hotspot at Bradley Flats,Public,Yes,41.133645,-8.624338,86:10:00:fe:c3:f1,Residential Area,Avenida da Boavista,Parish of Massarelos
Wi-Fi Hotspot at Ryan Summit,Public,Yes,41.283485,-8.677579,1c:a7:f9:3a:43:fa,City Center,Avenida da Boavista,Parish of Cedofeita
Wi-Fi Hotspot at Lewis Forge,Private,Yes,41.225996,-8.54085,bc:a3:24:5d:0f:3a,City Park,Rua de Santa Catarina,Parish of Santo Ildefonso
Wi-Fi Hotspot at Edwin Mountains,Public,Yes,41.28008,-8.68375,28:6b:61:b4:77:46,Suburbs,Rua de Dom Pedro V,Parish of Santo Ildefonso
Wi-Fi Hotspot at Odonnell Skyway,Public,Yes,41.233794,-8.573327,6e:85:92:08:2e:23,Suburbs,Avenida da Boavista,Parish of Lordelo do Ouro
Wi-Fi Hotspot at Nelson Spur,Public,Yes,41.251746,-8.659438,9c:6b:88:6f:63:57,Residential Area,Rua de Dom Pedro V,Parish of Massarelos
Wi-Fi Hotspot at Humphrey Mountains,Private,Yes,41.110199,-8.569071,ce:0e:37:c4:ae:20,Residential Area,Rua de Dom Pedro V,Parish of Massarelos
Wi-Fi Hotspot at Alejandra Key,Public,Yes,41.213816,-8.649552,12:f7:fd:6c:35:01,City Center,Avenida dos Aliados,Parish of Massarelos
Wi-Fi Hotspot at Harris Way,Public,Yes,41.242827,-8.695324,d4:b6:f2:86:da:0a,City Center,Avenida da Boavista,Parish of Lordelo do Ouro
Wi-Fi Hotspot at Tommy Highway,Private,Yes,41.280037,-8.571769,da:b2:40:af:cd:f1,Downtown,Rua do Bonfim,Parish of Lordelo do Ouro
Wi-Fi Hotspot at Gonzalez Road,Private,Yes,41.275774,-8.675416,20:cb:12:7f:5b:88,City Park,Rua de Dom Pedro V,Parish of Cedofeita
Wi-Fi Hotspot at Ryan Underpass,Private,Yes,41.233454,-8.554499,4c:f1:f3:db:d0:61,City Park,Avenida da Boavista,Parish of Cedofeita
Wi-Fi Hotspot at Martinez Mount,Public,Yes,41.179938,-8.508703,04:56:27:be:5b:95,City Park,Rua de Dom Pedro V,Parish of Lordelo do Ouro
Wi-Fi Hotspot at Munoz Roads,Private,Yes,41.2359,-8.652271,0a:98:38:0f:71:3f,City Center,Rua de Dom Pedro V,Parish of Lordelo do Ouro
Wi-Fi Hotspot at Barbara Crossroad,Private,Yes,41.26927,-8.656403,80:51:78:63:86:fc,City Center,Avenida da Boavista,Parish of Santo Ildefonso
Wi-Fi Hotspot at Steven Mission,Public,Yes,41.137395,-8.572281,f8:f8:e4:f3:bc:8f,City Park,Rua do Bonfim,Parish of Cedofeita
Wi-Fi Hotspot at Jackson Walk,Private,Yes,41.216676,-8.694959,0c:97:9a:94:d2:94,City Park,Avenida dos Aliados,Parish of Santo Ildefonso
Wi-Fi Hotspot at Bradley Port,Private,Yes,41.168565,-8.501162,b4:c4:d1:6d:f6:d9,Suburbs,Rua de Santa Catarina,Parish of Lordelo do Ouro
Wi-Fi Hotspot at Lisa Key,Private,Yes,41.27114,-8.551498,d0:98:a4:58:48:b2,City Park,Rua de Dom Pedro V,Parish of Santo Ildefonso
Wi-Fi Hotspot at Jeffrey Expressway,Public,Yes,41.175168,-8.569282,54:3a:39:fa:79:56,Suburbs,Rua do Bonfim,Parish of Massarelos
Wi-Fi Hotspot at Berry Underpass,Private,Yes,41.262069,-8.671428,16:6d:c3:3d:8f:93,City Park,Rua do Bonfim,Parish of Lordelo do Ouro
Wi-Fi Hotspot at Brandy Viaduct,Private,Yes,41.137749,-8.661072,3a:9d:42:06:3b:0a,Downtown,Rua de Santa Catarina,Parish of Cedofeita
Wi-Fi Hotspot at Hicks Oval,Public,Yes,41.227052,-8.55557,70:de:8d:65:6c:5e,Suburbs,Rua de Santa Catarina,Parish of Massarelos
Wi-Fi Hotspot at Wilson Valleys,Public,Yes,41.213663,-8.679921,ba:aa:f5:a6:aa:bf,Residential Area,Avenida dos Aliados,Parish of Cedofeita
Wi-Fi Hotspot at Jeffrey Ridges,Public,Yes,41.292604,-8.617976,38:d1:7a:c2:7a:c5,Downtown,Rua de Dom Pedro V,Parish of Massarelos
Wi-Fi Hotspot at Garcia Lake,Private,Yes,41.252402,-8.545076,0c:99:fc:10:b9:e2,City Center,Avenida da Boavista,Parish of Santo Ildefonso
Wi-Fi Hotspot at Wolf Loop,Public,Yes,41.257977,-8.689641,10:ba:86:57:93:b6,Downtown,Avenida dos Aliados,Parish of Santo Ildefonso
Wi-Fi Hotspot at Hicks Track,Private,Yes,41.137341,-8.533776,50:25:17:71:8d:af,Downtown,Rua do Bonfim,Parish of Lordelo do Ouro
Wi-Fi Hotspot at Eric Stravenue,Public,Yes,41.175101,-8.517357,10:d9:42:a5:8c:86,City Park,Avenida da Boavista,Parish of Santo Ildefonso
Wi-Fi Hotspot at Lisa Village,Public,Yes,41.151558,-8.542634,76:e3:c0:8b:bf:25,City Center,Rua do Bonfim,Parish of Santo Ildefonso
Wi-Fi Hotspot at Thomas Isle,Private,Yes,41.212838,-8.557636,f8:33:2a:21:96:d1,Residential Area,Rua de Santa Catarina,Parish of Santo Ildefonso
Wi-Fi Hotspot at Keith Squares,Private,Yes,41.124118,-8.573672,44:e2:c4:12:b2:23,Suburbs,Avenida dos Aliados,Parish of Lordelo do Ouro
Wi-Fi Hotspot at Eric Tunnel,Public,Yes,41.114413,-8.685929,ca:90:2f:92:ac:14,Residential Area,Rua de Dom Pedro V,Parish of Cedofeita
Wi-Fi Hotspot at Krista Crest,Private,Yes,41.205493,-8.698321,4c:f5:83:d4:8f:4c,Downtown,Avenida dos Aliados,Parish of Lordelo do Ouro
Wi-Fi Hotspot at Douglas Village,Public,Yes,41.268411,-8.504108,52:b6:a0:8c:47:53,City Park,Rua do Bonfim,Parish of Santo Ildefonso
Wi-Fi Hotspot at Pearson Pines,Public,Yes,41.285031,-8.526928,40:41:6e:27:10:96,Residential Area,Rua de Santa Catarina,Parish of Cedofeita
Wi-Fi Hotspot at Miles Lock,Public,Yes,41.126152,-8.571848,2e:6c:34:83:95:e6,City Center,Avenida da Boavista,Parish of Lordelo do Ouro
Wi-Fi Hotspot at Miller Landing,Private,Yes,41.123219,-8.500055,2a:3f:7e:9e:46:39,Suburbs,Rua de Dom Pedro V,Parish of Cedofeita
Wi-Fi Hotspot at Hardy Brooks,Public,Yes,41.120238,-8.548764,80:ca:d5:6d:56:07,City Center,Rua de Dom Pedro V,Parish of Santo Ildefonso
Wi-Fi Hotspot at Morgan Drive,Public,Yes,41.265098,-8.547514,a0:0b:de:a2:cf:5f,City Park,Avenida dos Aliados,Parish of Cedofeita
Wi-Fi Hotspot at Miller Courts,Private,Yes,41.176159,-8.665391,80:3c:df:59:0c:15,Downtown,Rua de Dom Pedro V,Parish of Massarelos
Wi-Fi Hotspot at Tara Estates,Public,Yes,41.299543,-8.631141,3a:b8:34:5a:13:af,Residential Area,Rua de Dom Pedro V,Parish of Massarelos
Wi-Fi Hotspot at Carrie Locks,Public,Yes,41.245273,-8.535566,7e:79:f9:f9:23:0f,City Park,Avenida da Boavista,Parish of Cedofeita
Wi-Fi Hotspot at John Canyon,Public,Yes,41.286104,-8.695108,1c:ab:15:36:89:2a,Downtown,Avenida dos Aliados,Parish of Cedofeita
Wi-Fi Hotspot at Dawn Turnpike,Public,Yes,41.139972,-8.644272,5e:0a:6d:43:df:d9,City Center,Avenida da Boavista,Parish of Massarelos
Wi-Fi Hotspot at Bryant Lights,Private,Yes,41.13445,-8.577846,6c:fc:1c:89:92:e5,City Center,Avenida dos Aliados,Parish of Lordelo do Ouro
Wi-Fi Hotspot at Freeman Valleys,Private,Yes,41.233568,-8.580417,00:b3:55:f9:fc:a5,City Center,Avenida dos Aliados,Parish of Lordelo do Ouro
Wi-Fi Hotspot at Jeremiah Way,Private,Yes,41.225817,-8.648874,3e:cd:48:33:d5:ef,City Center,Rua de Dom Pedro V,Parish of Cedofeita
Wi-Fi Hotspot at John Ridges,Private,Yes,41.181604,-8.619745,c0:91:a6:f9:79:2c,City Center,Rua do Bonfim,Parish of Massarelos
Wi-Fi Hotspot at Gibbs Walks,Private,Yes,41.131769,-8.525776,a4:b2:70:d5:07:2c,City Center,Avenida da Boavista,Parish of Massarelos
Wi-Fi Hotspot at Cook Bypass,Private,Yes,41.17468,-8.57133,1a:6b:97:55:c3:ff,Suburbs,Avenida da Boavista,Parish of Lordelo do Ouro
Wi-Fi Hotspot at Hill Lakes,Private,Yes,41.137499,-8.57191,64:d9:04:b7:50:c3,Residential Area,Rua de Dom Pedro V,Parish of Lordelo do Ouro
Wi-Fi Hotspot at Kathy Groves,Private,Yes,41.215195,-8.592121,20:03:b2:59:04:40,City Park,Avenida dos Aliados,Parish of Massarelos
Wi-Fi Hotspot at Leslie Plains,Private,Yes,41.119002,-8.553701,d4:79:1c:90:39:05,City Center,Rua de Santa Catarina,Parish of Massarelos
Wi-Fi Hotspot at Rogers Village,Private,Yes,41.141483,-8.639374,8a:eb:ef:96:eb:d5,Downtown,Rua de Santa Catarina,Parish of Lordelo do Ouro
Wi-Fi Hotspot at Valerie Village,Private,Yes,41.191946,-8.514668,f0:47:20:96:c4:26,Suburbs,Rua de Dom Pedro V,Parish of Massarelos
Wi-Fi Hotspot at Sean Street,Private,Yes,41.128998,-8.626688,38:fd:d1:58:92:1e,Residential Area,Avenida dos Aliados,Parish of Cedofeita
Wi-Fi Hotspot at James Station,Private,Yes,41.103995,-8.676461,24:93:dd:c6:84:d3,City Park,Rua de Santa Catarina,Parish of Santo Ildefonso
Wi-Fi Hotspot at David Brooks,Public,Yes,41.196553,-8.534359,12:cb:ee:e9:56:3c,Residential Area,Avenida da Boavista,Parish of Lordelo do Ouro
Wi-Fi Hotspot at Anthony Flat,Private,Yes,41.184288,-8.542752,5c:d7:5f:75:e8:4c,Residential Area,Rua de Dom Pedro V,Parish of Massarelos
Wi-Fi Hotspot at Dean Flat,Private,Yes,41.263495,-8.542008,a4:1a:04:de:0c:43,Downtown,Rua de Dom Pedro V,Parish of Lordelo do Ouro
Wi-Fi Hotspot at Lisa Hills,Private,Yes,41.2663,-8.691337,54:ab:3d:d3:c6:b5,Downtown,Rua de Dom Pedro V,Parish of Cedofeita
Wi-Fi Hotspot at Jonathan Vista,Public,Yes,41.285241,-8.6956,d8:b7:00:b8:ef:f2,City Center,Rua de Santa Catarina,Parish of Lordelo do Ouro
Wi-Fi Hotspot at Haley Harbors,Public,Yes,41.254981,-8.516047,ee:db:5e:91:0d:f6,Suburbs,Rua do Bonfim,Parish of Lordelo do Ouro
Wi-Fi Hotspot at David Stream,Private,Yes,41.235284,-8.59165,7c:fe:4c:ed:e8:93,Downtown,Rua de Santa Catarina,Parish of Lordelo do Ouro
Wi-Fi Hotspot at Christopher Plains,Private,Yes,41.118013,-8.622695,3a:3e:e5:8a:19:09,City Center,Avenida dos Aliados,Parish of Massarelos
Wi-Fi Hotspot at Evans Dale,Public,Yes,41.269901,-8.552947,d0:ba:d1:b8:d0:f9,Suburbs,Rua do Bonfim,Parish of Cedofeita
Wi-Fi Hotspot at Jacob Meadow,Private,Yes,41.1869,-8.651183,86:97:59:4e:ee:37,City Park,Avenida da Boavista,Parish of Massarelos
Wi-Fi Hotspot at Joshua Road,Public,Yes,41.213861,-8.50289,e8:9b:c2:eb:e1:e8,City Center,Avenida dos Aliados,Parish of Lordelo do Ouro
Wi-Fi Hotspot at Steven Oval,Public,Yes,41.273546,-8.533545,80:de:12:4a:d9:a1,Downtown,Rua do Bonfim,Parish of Lordelo do Ouro
Wi-Fi Hotspot at Rodgers Green,Private,Yes,41.192889,-8.689826,c4:cd:bc:a2:59:ac,City Park,Avenida dos Aliados,Parish of Santo Ildefonso
Wi-Fi Hotspot at Julie Pines,Public,Yes,41.136742,-8.684693,d2:0f:39:e4:46:4b,Suburbs,Rua de Santa Catarina,Parish of Santo Ildefonso
Wi-Fi Hotspot at Johnson Road,Public,Yes,41.125879,-8.683666,ca:86:81:7f:ec:db,Downtown,Rua de Dom Pedro V,Parish of Lordelo do Ouro
Wi-Fi Hotspot at Jacqueline Vista,Private,Yes,41.157804,-8.658084,4c:0e:2b:78:b5:1d,Suburbs,Rua de Dom Pedro V,Parish of Massarelos
Wi-Fi Hotspot at Williams Walk,Private,Yes,41.184155,-8.644174,8e:e3:01:61:13:b7,Downtown,Rua de Dom Pedro V,Parish of Lordelo do Ouro
Wi-Fi Hotspot at Evans Meadow,Private,Yes,41.188168,-8.691162,4a:b2:27:5f:b8:17,Suburbs,Avenida dos Aliados,Parish of Santo Ildefonso
Wi-Fi Hotspot at Thomas Fields,Public,Yes,41.297373,-8.608211,d8:e2:f4:87:28:3e,Suburbs,Rua de Dom Pedro V,Parish of Santo Ildefonso
Wi-Fi Hotspot at Heather Centers,Private,Yes,41.294012,-8.630651,c4:ba:aa:aa:25:e3,Downtown,Rua de Dom Pedro V,Parish of Santo Ildefonso
Wi-Fi Hotspot at Nicole Plaza,Private,Yes,41.255432,-8.586706,76:99:d5:6f:99:38,Residential Area,Avenida dos Aliados,Parish of Lordelo do Ouro
Wi-Fi Hotspot at Estes Square,Public,Yes,41.291097,-8.539569,6e:9b:e7:8a:a9:94,Downtown,Rua do Bonfim,Parish of Cedofeita
Wi-Fi Hotspot at Mcknight Divide,Private,Yes,41.215298,-8.510256,86:a8:9f:59:f9:fc,City Center,Rua de Santa Catarina,Parish of Massarelos
Wi-Fi Hotspot at Richard Road,Private,Yes,41.270872,-8.556455,92:8a:da:a5:e0:7c,City Center,Rua de Dom Pedro V,Parish of Cedofeita
Wi-Fi Hotspot at Vincent Court,Public,Yes,41.219118,-8.697945,5e:a9:80:f3:4f:5e,Residential Area,Rua do Bonfim,Parish of Santo Ildefonso
Wi-Fi Hotspot at Morse Lodge,Public,Yes,41.286088,-8.602445,b0:a0:dc:ba:94:45,Residential Area,Rua de Santa Catarina,Parish of Lordelo do Ouro
Wi-Fi Hotspot at Carter Via,Public,Yes,41.184509,-8.668654,86:e4:87:24:04:cd,City Center,Rua de Dom Pedro V,Parish of Lordelo do Ouro
Wi-Fi Hotspot at Donald Ridges,Private,Yes,41.193511,-8.531049,dc:64:d0:32:35:c8,City Center,Rua do Bonfim,Parish of Lordelo do Ouro
Wi-Fi Hotspot at Owens Forges,Public,Yes,41.282575,-8.697754,c0:ad:c2:05:2c:d6,City Park,Rua de Santa Catarina,Parish of Massarelos
Wi-Fi Hotspot at Black Stream,Private,Yes,41.100736,-8.576561,c2:c4:5d:39:e1:ac,Residential Area,Avenida dos Aliados,Parish of Cedofeita
Wi-Fi Hotspot at Patricia Highway,Private,Yes,41.196625,-8.675431,ae:9e:65:3f:c9:1b,Downtown,Rua do Bonfim,Parish of Massarelos
Wi-Fi Hotspot at Lauren Field,Public,Yes,41.104398,-8.57972,6c:96:c4:6b:22:34,Suburbs,Rua do Bonfim,Parish of Lordelo do Ouro
Wi-Fi Hotspot at Julie Mills,Private,Yes,41.235251,-8.565119,ec:47:b0:f5:b9:77,Residential Area,Avenida da Boavista,Parish of Lordelo do Ouro
Wi-Fi Hotspot at Graham Street,Private,Yes,41.167807,-8.532498,c6:16:12:b7:43:4c,Residential Area,Rua de Santa Catarina,Parish of Cedofeita
Wi-Fi Hotspot at Bryant Vista,Private,Yes,41.25909,-8.686808,a2:c0:3d:e0:8c:b2,Suburbs,Rua do Bonfim,Parish of Lordelo do Ouro
Wi-Fi Hotspot at Colin Port,Private,Yes,41.148143,-8.682719,cc:d4:db:f5:37:f1,City Center,Rua do Bonfim,Parish of Lordelo do Ouro
Wi-Fi Hotspot at King Views,Private,Yes,41.190426,-8.665462,cc:88:01:cb:57:4d,City Park,Avenida dos Aliados,Parish of Lordelo do Ouro
Wi-Fi Hotspot at Horton Views,Private,Yes,41.163727,-8.665442,6a:a7:b2:ed:63:ce,City Park,Rua de Santa Catarina,Parish of Santo Ildefonso
Wi-Fi Hotspot at Johnson Prairie,Private,Yes,41.203789,-8.61408,b4:eb:ac:34:0f:fc,Residential Area,Rua do Bonfim,Parish of Massarelos
Wi-Fi Hotspot at Butler Meadow,Private,Yes,41.169104,-8.654409,a4:ed:70:92:e6:66,City Park,Rua de Dom Pedro V,Parish of Santo Ildefonso
Wi-Fi Hotspot at Jonathan Pike,Public,Yes,41.13106,-8.517328,18:6e:5e:62:61:f6,City Center,Avenida da Boavista,Parish of Lordelo do Ouro
Wi-Fi Hotspot at Peterson Forks,Private,Yes,41.279552,-8.600692,26:1f:59:a9:f3:b6,Suburbs,Rua do Bonfim,Parish of Massarelos
Wi-Fi Hotspot at Michael Cliff,Public,Yes,41.199836,-8.618269,1a:c6:e4:d7:a1:7e,Downtown,Rua de Dom Pedro V,Parish of Massarelos
Wi-Fi Hotspot at Thomas Walks,Public,Yes,41.186622,-8.686859,ce:08:09:a4:f2:62,Downtown,Avenida da Boavista,Parish of Massarelos
Wi-Fi Hotspot at Lee Lodge,Public,Yes,41.266271,-8.561257,66:64:0c:66:ff:b0,Downtown,Avenida dos Aliados,Parish of Lordelo do Ouro
Wi-Fi Hotspot at Smith Trail,Private,Yes,41.134917,-8.585649,96:e2:73:d7:ec:9b,City Center,Rua de Santa Catarina,Parish of Santo Ildefonso
Wi-Fi Hotspot at Salazar Burg,Public,Yes,41.245884,-8.565959,6c:7a:a2:2d:35:f4,Downtown,Rua do Bonfim,Parish of Santo Ildefonso
Wi-Fi Hotspot at Paula Mills,Private,Yes,41.202199,-8.618778,2a:09:f2:5b:d7:4f,City Park,Avenida da Boavista,Parish of Santo Ildefonso
Wi-Fi Hotspot at Short Common,Private,Yes,41.28004,-8.662924,e4:86:ce:f0:bb:4a,Downtown,Avenida da Boavista,Parish of Cedofeita
Wi-Fi Hotspot at Linda Well,Private,Yes,41.157337,-8.637394,74:f3:bd:7f:37:32,Suburbs,Rua do Bonfim,Parish of Cedofeita
Wi-Fi Hotspot at Pearson Falls,Public,Yes,41.194823,-8.511547,8a:e9:e7:89:2a:01,Downtown,Rua do Bonfim,Parish of Cedofeita
Wi-Fi Hotspot at Michael Orchard,Public,Yes,41.273921,-8.651287,2e:f1:bb:c3:b9:50,Downtown,Rua do Bonfim,Parish of Lordelo do Ouro
Wi-Fi Hotspot at Pacheco Neck,Public,Yes,41.136048,-8.691685,d8:a5:3b:91:e0:eb,City Park,Rua de Dom Pedro V,Parish of Cedofeita
Wi-Fi Hotspot at David Rapids,Public,Yes,41.252157,-8.572939,3a:e9:4c:3a:2e:78,City Center,Rua de Santa Catarina,Parish of Santo Ildefonso
Wi-Fi Hotspot at Thompson Cliffs,Private,Yes,41.14353,-8.641499,e8:aa:f6:93:63:bf,City Park,Rua de Dom Pedro V,Parish of Cedofeita
Wi-Fi Hotspot at Kramer Lights,Private,Yes,41.273438,-8.699512,1a:ed:9f:2e:6f:e5,Residential Area,Avenida da Boavista,Parish of Santo Ildefonso
Wi-Fi Hotspot at Taylor Alley,Private,Yes,41.172747,-8.659077,cc:72:c8:b9:f6:20,City Center,Rua do Bonfim,Parish of Santo Ildefonso
Wi-Fi Hotspot at Bonnie Isle,Private,Yes,41.223332,-8.517576,4a:67:23:00:96:0a,Downtown,Rua de Santa Catarina,Parish of Santo Ildefonso
Wi-Fi Hotspot at Elizabeth Via,Public,Yes,41.100233,-8.503426,d4:fa:58:f5:31:92,City Park,Rua de Santa Catarina,Parish of Massarelos
Wi-Fi Hotspot at Gutierrez Row,Public,Yes,41.267096,-8.538638,1a:c9:e5:ee:de:2d,Residential Area,Rua de Santa Catarina,Parish of Cedofeita
Wi-Fi Hotspot at Berger Shoal,Private,Yes,41.233592,-8.500646,6e:3e:5a:91:d5:8b,Downtown,Rua de Dom Pedro V,Parish of Massarelos
Wi-Fi Hotspot at Aaron Road,Private,Yes,41.223321,-8.672604,00:62:c2:a0:ac:f0,Downtown,Avenida dos Aliados,Parish of Cedofeita
Wi-Fi Hotspot at Garcia Wall,Private,Yes,41.202485,-8.610862,58:15:bb:09:d5:5e,Suburbs,Rua do Bonfim,Parish of Massarelos
Wi-Fi Hotspot at Grant Throughway,Public,Yes,41.256902,-8.558889,5e:78:a7:fd:ed:66,City Center,Rua de Dom Pedro V,Parish of Massarelos
Wi-Fi Hotspot at Deleon Dam,Private,Yes,41.295939,-8.653682,a8:9c:4e:9f:09:3f,City Center,Rua de Dom Pedro V,Parish of Santo Ildefonso
Wi-Fi Hotspot at Angela Lake,Public,Yes,41.145041,-8.567366,0e:b4:7c:63:30:ce,Suburbs,Rua de Dom Pedro V,Parish of Santo Ildefonso
Wi-Fi Hotspot at Brian Mews,Private,Yes,41.116768,-8.50987,a0:2e:fa:59:7a:f1,Suburbs,Rua de Dom Pedro V,Parish of Massarelos
Wi-Fi Hotspot at Smith Manors,Public,Yes,41.166725,-8.641541,60:3f:dc:71:d1:dc,Downtown,Avenida da Boavista,Parish of Santo Ildefonso
Wi-Fi Hotspot at Lee Street,Public,Yes,41.187717,-8.540887,88:3c:35:1b:ae:59,City Center,Rua de Santa Catarina,Parish of Lordelo do Ouro
Wi-Fi Hotspot at Clarke Turnpike,Private,Yes,41.29842,-8.627029,c0:84:b4:93:88:13,Downtown,Rua de Dom Pedro V,Parish of Santo Ildefonso
Wi-Fi Hotspot at Harris Terrace,Public,Yes,41.271458,-8.622306,84:c7:76:ed:dd:de,Downtown,Avenida da Boavista,Parish of Massarelos
Wi-Fi Hotspot at Rojas Port,Public,Yes,41.171516,-8.692269,2c:2f:8a:68:6f:00,Suburbs,Avenida dos Aliados,Parish of Cedofeita
Wi-Fi Hotspot at William Spurs,Public,Yes,41.249539,-8.518684,8c:11:57:ad:66:3e,City Park,Avenida da Boavista,Parish of Cedofeita
Wi-Fi Hotspot at Sanchez Meadows,Private,Yes,41.24412,-8.684576,4e:37:b2:51:65:e0,Suburbs,Avenida dos Aliados,Parish of Lordelo do Ouro
Wi-Fi Hotspot at Matthew Islands,Public,Yes,41.150202,-8.648456,e2:d5:b4:e8:6c:74,City Park,Rua de Dom Pedro V,Parish of Santo Ildefonso
Wi-Fi Hotspot at Cory Key,Public,Yes,41.205049,-8.629706,1c:82:60:c4:9f:3a,Residential Area,Avenida dos Aliados,Parish of Santo Ildefonso
Wi-Fi Hotspot at Morse Crest,Private,Yes,41.197364,-8.574601,d8:9d:4f:7d:e4:31,City Park,Avenida da Boavista,Parish of Massarelos
Wi-Fi Hotspot at James Stravenue,Public,Yes,41.258979,-8.534745,cc:30:41:d4:19:c9,Residential Area,Rua de Santa Catarina,Parish of Massarelos
Wi-Fi Hotspot at Golden Key,Private,Yes,41.111543,-8.57359,ca:a7:bf:85:fe:88,Suburbs,Rua de Santa Catarina,Parish of Cedofeita
Wi-Fi Hotspot at Lauren Lakes,Private,Yes,41.153408,-8.540716,72:14:64:5d:3f:f2,Suburbs,Rua de Dom Pedro V,Parish of Cedofeita
Wi-Fi Hotspot at Salas Island,Private,Yes,41.212004,-8.520078,7e:7e:58:29:16:f6,City Park,Rua do Bonfim,Parish of Massarelos
Wi-Fi Hotspot at Skinner Cove,Public,Yes,41.249939,-8.651072,a0:8c:01:7a:88:92,Downtown,Avenida dos Aliados,Parish of Massarelos
Wi-Fi Hotspot at Anna Bridge,Private,Yes,41.253336,-8.628339,ce:45:23:5d:c7:49,Suburbs,Rua do Bonfim,Parish of Cedofeita
Wi-Fi Hotspot at Ortega Grove,Private,Yes,41.14393,-8.601583,ce:9c:6f:5c:f9:6e,City Center,Rua de Dom Pedro V,Parish of Lordelo do Ouro
Wi-Fi Hotspot at Erika Hollow,Private,Yes,41.24822,-8.645674,ee:55:71:24:32:3c,Downtown,Rua do Bonfim,Parish of Lordelo do Ouro
Wi-Fi Hotspot at Cook Flat,Private,Yes,41.118793,-8.696129,68:11:83:11:ad:e4,Suburbs,Rua de Santa Catarina,Parish of Massarelos
Wi-Fi Hotspot at Roberts Crossroad,Private,Yes,41.275093,-8.630151,68:89:2f:52:60:4b,Downtown,Rua do Bonfim,Parish of Lordelo do Ouro
Wi-Fi Hotspot at Rodriguez Neck,Private,Yes,41.17676,-8.553758,f2:52:86:77:4b:1a,Downtown,Rua de Santa Catarina,Parish of Cedofeita
Wi-Fi Hotspot at Smith Mountains,Public,Yes,41.156021,-8.59708,60:75:44:75:5e:87,Suburbs,Avenida dos Aliados,Parish of Santo Ildefonso
Wi-Fi Hotspot at Adams Points,Private,Yes,41.20918,-8.520405,16:a1:8e:92:1d:2a,Suburbs,Rua de Santa Catarina,Parish of Lordelo do Ouro
Wi-Fi Hotspot at Ashley Meadows,Private,Yes,41.206113,-8.628117,e0:b3:f2:95:89:08,Residential Area,Rua de Dom Pedro V,Parish of Massarelos
Wi-Fi Hotspot at Dale Court,Private,Yes,41.250949,-8.597313,88:b4:a5:c8:9e:77,Residential Area,Avenida da Boavista,Parish of Lordelo do Ouro
Wi-Fi Hotspot at James Loaf,Public,Yes,41.255843,-8.562062,b4:22:67:f9:84:5a,City Park,Avenida da Boavista,Parish of Massarelos
Wi-Fi Hotspot at Crystal Hills,Private,Yes,41.141876,-8.535693,2e:44:1a:e0:bf:84,City Park,Rua de Santa Catarina,Parish of Cedofeita
Wi-Fi Hotspot at Nicole Run,Private,Yes,41.173726,-8.579999,34:7c:96:f3:b4:c2,Downtown,Rua do Bonfim,Parish of Cedofeita
Wi-Fi Hotspot at Mendoza Circles,Public,Yes,41.293484,-8.538347,b2:27:0c:e2:20:d3,City Park,Rua do Bonfim,Parish of Santo Ildefonso
Wi-Fi Hotspot at Jennifer Springs,Private,Yes,41.11125,-8.50098,0c:1a:16:a0:c8:9d,City Park,Rua de Dom Pedro V,Parish of Santo Ildefonso
Wi-Fi Hotspot at Townsend Ports,Private,Yes,41.107273,-8.529188,42:b7:93:45:14:a7,City Center,Avenida dos Aliados,Parish of Cedofeita
Wi-Fi Hotspot at Kelly Isle,Public,Yes,41.214125,-8.608594,ca:63:5d:f1:88:85,Downtown,Avenida dos Aliados,Parish of Santo Ildefonso
Wi-Fi Hotspot at Daniel Fork,Private,Yes,41.109163,-8.675344,54:75:41:b9:5a:6b,Downtown,Rua de Santa Catarina,Parish of Lordelo do Ouro
Wi-Fi Hotspot at Rachel Club,Private,Yes,41.182066,-8.606689,d0:74:67:c6:d8:c5,City Center,Avenida da Boavista,Parish of Lordelo do Ouro
Wi-Fi Hotspot at Scott Prairie,Public,Yes,41.25338,-8.511541,ae:6b:72:ee:d1:f1,Downtown,Avenida da Boavista,Parish of Massarelos
Wi-Fi Hotspot at Tina Divide,Private,Yes,41.126311,-8.539348,38:b2:6e:ea:8b:61,Residential Area,Avenida dos Aliados,Parish of Cedofeita
Wi-Fi Hotspot at Lopez Camp,Public,Yes,41.178823,-8.537252,5e:bd:36:99:1d:71,City Park,Rua do Bonfim,Parish of Lordelo do Ouro
Wi-Fi Hotspot at Schneider Lake,Private,Yes,41.141254,-8.64014,1a:28:2d:65:f2:ff,City Park,Rua do Bonfim,Parish of Cedofeita
Wi-Fi Hotspot at Joshua Junction,Private,Yes,41.119296,-8.614487,6c:10:5b:b4:c2:fa,Downtown,Rua de Santa Catarina,Parish of Lordelo do Ouro
Wi-Fi Hotspot at Sarah Row,Private,Yes,41.239849,-8.69942,4c:8d:82:d6:65:c5,Downtown,Rua do Bonfim,Parish of Cedofeita
Wi-Fi Hotspot at Dana Vista,Public,Yes,41.235391,-8.637784,68:d6:77:b8:8c:72,Residential Area,Avenida dos Aliados,Parish of Santo Ildefonso
Wi-Fi Hotspot at Carroll Junction,Public,Yes,41.246404,-8.553809,4c:a9:d9:f0:0c:49,Downtown,Rua de Santa Catarina,Parish of Massarelos
Wi-Fi Hotspot at White Brooks,Private,Yes,41.214244,-8.632199,1e:86:1b:70:d6:9b,Downtown,Rua de Santa Catarina,Parish of Santo Ildefonso
Wi-Fi Hotspot at Shelby Circle,Private,Yes,41.241744,-8.680119,64:38:d2:a0:b3:87,Residential Area,Rua do Bonfim,Parish of Cedofeita
Wi-Fi Hotspot at Morgan Crescent,Private,Yes,41.191062,-8.69964,de:18:77:05:a2:05,City Center,Avenida dos Aliados,Parish of Massarelos
Wi-Fi Hotspot at Ashley Key,Private,Yes,41.154927,-8.577024,94:90:75:77:6b:b8,Suburbs,Rua de Santa Catarina,Parish of Cedofeita
Wi-Fi Hotspot at Fuentes Expressway,Private,Yes,41.117341,-8.596701,aa:1e:3b:ca:f4:e4,City Park,Avenida dos Aliados,Parish of Cedofeita
Wi-Fi Hotspot at Martinez Forks,Private,Yes,41.259975,-8.516125,64:5b:de:3d:53:13,Downtown,Avenida da Boavista,Parish of Massarelos
Wi-Fi Hotspot at Frank Flat,Public,Yes,41.11419,-8.577588,46:b4:8d:a0:ad:79,Suburbs,Avenida da Boavista,Parish of Massarelos
Wi-Fi Hotspot at Contreras Extension,Private,Yes,41.269464,-8.561599,42:46:24:eb:ff:07,Downtown,Rua de Santa Catarina,Parish of Lordelo do Ouro
Wi-Fi Hotspot at Howard Village,Public,Yes,41.175099,-8.64583,22:44:a5:52:d7:75,Downtown,Rua do Bonfim,Parish of Lordelo do Ouro
Wi-Fi Hotspot at Debbie Isle,Public,Yes,41.148631,-8.644898,04:8d:4c:2d:f2:a9,City Park,Rua de Santa Catarina,Parish of Cedofeita
Wi-Fi Hotspot at Richard River,Private,Yes,41.259672,-8.618897,56:1d:60:3c:cd:f7,Downtown,Avenida dos Aliados,Parish of Massarelos
Wi-Fi Hotspot at Danielle Mountain,Public,Yes,41.259715,-8.624618,3c:d3:83:4e:ac:46,City Center,Avenida da Boavista,Parish of Cedofeita
Wi-Fi Hotspot at Conner Islands,Private,Yes,41.1111,-8.618287,c0:43:3d:1d:e7:21,Suburbs,Avenida da Boavista,Parish of Lordelo do Ouro
Wi-Fi Hotspot at Mills Drives,Public,Yes,41.127507,-8.583834,28:65:8c:bc:1a:82,City Park,Rua de Dom Pedro V,Parish of Cedofeita
Wi-Fi Hotspot at Howard Parkway,Public,Yes,41.28866,-8.539306,ba:81:c7:06:7b:fa,Residential Area,Avenida da Boavista,Parish of Cedofeita
Wi-Fi Hotspot at Geoffrey Roads,Private,Yes,41.2951,-8.524799,28:3e:aa:51:ea:01,Suburbs,Rua do Bonfim,Parish of Santo Ildefonso
Wi-Fi Hotspot at Horton Mission,Public,Yes,41.261415,-8.68677,4c:bb:d8:3b:bc:69,City Park,Avenida dos Aliados,Parish of Massarelos
Wi-Fi Hotspot at Humphrey Circle,Public,Yes,41.225597,-8.571238,98:53:6a:b7:04:62,City Park,Rua de Dom Pedro V,Parish of Cedofeita
Wi-Fi Hotspot at Lisa Common,Public,Yes,41.209855,-8.588909,48:90:11:06:5d:40,City Park,Avenida dos Aliados,Parish of Massarelos
Wi-Fi Hotspot at Amber Corner,Private,Yes,41.155858,-8.536209,14:9e:bc:3a:0b:be,Suburbs,Rua do Bonfim,Parish of Cedofeita
Wi-Fi Hotspot at Gabriel Spring,Public,Yes,41.262018,-8.540906,ea:ca:43:0b:fd:0e,City Center,Rua do Bonfim,Parish of Santo Ildefonso
Wi-Fi Hotspot at Brian Pike,Public,Yes,41.225394,-8.654392,8e:66:b0:24:17:3e,Suburbs,Rua de Dom Pedro V,Parish of Cedofeita
Wi-Fi Hotspot at Heather Rapid,Public,Yes,41.17088,-8.61254,54:4f:b0:a5:ae:86,Downtown,Rua de Santa Catarina,Parish of Cedofeita
Wi-Fi Hotspot at Steven Unions,Public,Yes,41.161647,-8.525266,6c:5d:73:07:53:9a,City Park,Rua de Dom Pedro V,Parish of Massarelos
Wi-Fi Hotspot at Kyle Mountain,Public,Yes,41.213971,-8.575008,5e:27:d3:cc:5d:32,Downtown,Rua do Bonfim,Parish of Cedofeita
Wi-Fi Hotspot at Linda Dale,Private,Yes,41.121951,-8.643685,1c:e3:73:a3:92:58,Downtown,Rua de Santa Catarina,Parish of Massarelos
Wi-Fi Hotspot at Chelsea Forge,Private,Yes,41.291181,-8.663098,c8:dd:2f:4c:4c:39,Suburbs,Rua do Bonfim,Parish of Massarelos
Wi-Fi Hotspot at Rose Lights,Private,Yes,41.15483,-8.623509,3a:84:05:02:42:1c,City Center,Rua do Bonfim,Parish of Massarelos
Wi-Fi Hotspot at Frank Club,Private,Yes,41.273394,-8.625131,f8:9c:b6:32:e2:c5,City Center,Rua de Santa Catarina,Parish of Santo Ildefonso
Wi-Fi Hotspot at Bennett Divide,Private,Yes,41.100805,-8.570592,c8:83:f8:ac:13:ae,Suburbs,Rua de Dom Pedro V,Parish of Santo Ildefonso
Wi-Fi Hotspot at Ruth Lights,Public,Yes,41.252787,-8.622436,44:29:d6:4a:42:da,City Center,Rua do Bonfim,Parish of Cedofeita
Wi-Fi Hotspot at Nicole Ferry,Private,Yes,41.155294,-8.609401,c2:c1:eb:2f:14:d5,Residential Area,Avenida dos Aliados,Parish of Lordelo do Ouro
Wi-Fi Hotspot at Rebecca Villages,Public,Yes,41.206241,-8.520735,3a:61:80:ab:44:3c,Residential Area,Rua de Dom Pedro V,Parish of Santo Ildefonso
Wi-Fi Hotspot at Walters Wells,Public,Yes,41.283713,-8.571603,9c:e2:74:7d:f5:02,Residential Area,Rua do Bonfim,Parish of Lordelo do Ouro
Wi-Fi Hotspot at Steele Flat,Public,Yes,41.270579,-8.65913,be:cb:ff:d0:dc:92,City Park,Rua de Santa Catarina,Parish of Cedofeita
Wi-Fi Hotspot at Michael Rapids,Public,Yes,41.118301,-8.687251,34:dc:dd:61:3c:8e,City Center,Avenida dos Aliados,Parish of Lordelo do Ouro
Wi-Fi Hotspot at Thomas Underpass,Private,Yes,41.289844,-8.560016,44:b8:5f:6c:24:32,City Center,Rua de Santa Catarina,Parish of Santo Ildefonso
Wi-Fi Hotspot at Mack Pike,Private,Yes,41.186699,-8.584923,a4:a1:c1:61:93:20,City Park,Rua do Bonfim,Parish of Massarelos
Wi-Fi Hotspot at Cody Ports,Private,Yes,41.240493,-8.578092,8c:fa:87:6f:a9:23,Suburbs,Avenida dos Aliados,Parish of Lordelo do Ouro
Wi-Fi Hotspot at Moore Greens,Public,Yes,41.292778,-8.571328,a4:fa:65:86:1e:4e,Downtown,Rua de Santa Catarina,Parish of Cedofeita
Wi-Fi Hotspot at Wayne Ridges,Public,Yes,41.249469,-8.58258,f2:e5:73:af:ff:56,City Center,Avenida da Boavista,Parish of Santo Ildefonso
Wi-Fi Hotspot at Tran Landing,Private,Yes,41.219037,-8.530719,14:04:40:8c:0b:e2,Downtown,Avenida dos Aliados,Parish of Cedofeita
Wi-Fi Hotspot at Reynolds Creek,Public,Yes,41.151399,-8.639498,52:2a:b3:11:72:de,Residential Area,Avenida da Boavista,Parish of Santo Ildefonso
Wi-Fi Hotspot at Sherri View,Public,Yes,41.194907,-8.616199,ec:a4:ca:94:b2:4a,Suburbs,Avenida dos Aliados,Parish of Santo Ildefonso
Wi-Fi Hotspot at Janet Villages,Private,Yes,41.104248,-8.563817,46:a3:57:4b:87:77,Suburbs,Avenida da Boavista,Parish of Cedofeita
Wi-Fi Hotspot at Glenn Cliffs,Public,Yes,41.232769,-8.592522,98:d7:62:5c:fc:3d,Downtown,Avenida dos Aliados,Parish of Cedofeita
Wi-Fi Hotspot at Reynolds Brook,Private,Yes,41.296088,-8.554141,de:10:73:fc:94:44,Downtown,Rua de Dom Pedro V,Parish of Massarelos
Wi-Fi Hotspot at Dominic Lodge,Public,Yes,41.284158,-8.516078,a2:0e:8b:1e:e5:c0,Suburbs,Avenida da Boavista,Parish of Lordelo do Ouro
Wi-Fi Hotspot at Whitney Ports,Public,Yes,41.171336,-8.595904,54:3b:e8:80:8c:7f,Suburbs,Rua de Dom Pedro V,Parish of Cedofeita
Wi-Fi Hotspot at Garcia Extension,Private,Yes,41.29251,-8.595065,be:a4:f4:03:ab:e6,Suburbs,Rua do Bonfim,Parish of Santo Ildefonso
Wi-Fi Hotspot at Davidson Estates,Public,Yes,41.222807,-8.622044,00:6d:02:d5:4f:0c,Residential Area,Rua de Dom Pedro V,Parish of Santo Ildefonso
Wi-Fi Hotspot at John Point,Public,Yes,41.181986,-8.54539,1c:9e:c4:53:7c:02,Downtown,Avenida dos Aliados,Parish of Cedofeita
Wi-Fi Hotspot at Nicholas Mountain,Private,Yes,41.139447,-8.577901,8c:f2:4d:06:e7:23,Residential Area,Rua de Dom Pedro V,Parish of Massarelos
Wi-Fi Hotspot at Cameron View,Public,Yes,41.297086,-8.688007,a4:2d:65:ed:aa:75,City Park,Avenida da Boavista,Parish of Santo Ildefonso
Wi-Fi Hotspot at Eric Radial,Public,Yes,41.115706,-8.519845,fa:a9:a1:5e:2f:dd,City Center,Rua de Santa Catarina,Parish of Cedofeita
Wi-Fi Hotspot at Bishop Junctions,Public,Yes,41.184205,-8.673313,2c:af:49:ed:85:e0,City Park,Avenida da Boavista,Parish of Lordelo do Ouro
Wi-Fi Hotspot at Acevedo Islands,Private,Yes,41.21999,-8.549347,dc:1d:0f:94:55:6d,Downtown,Rua do Bonfim,Parish of Santo Ildefonso
Wi-Fi Hotspot at George Centers,Public,Yes,41.261092,-8.535281,42:d6:6c:c7:b5:b1,City Center,Rua de Santa Catarina,Parish of Santo Ildefonso
Wi-Fi Hotspot at Patricia Springs,Private,Yes,41.194841,-8.54635,02:85:6c:8a:3c:ae,City Center,Avenida da Boavista,Parish of Cedofeita
Wi-Fi Hotspot at Burns Station,Private,Yes,41.120079,-8.578846,9e:19:8f:b1:ad:5c,City Park,Avenida da Boavista,Parish of Lordelo do Ouro
Wi-Fi Hotspot at Louis Roads,Private,Yes,41.137408,-8.632483,1a:ee:6c:d6:d8:43,City Center,Rua do Bonfim,Parish of Cedofeita
Wi-Fi Hotspot at Jessica Curve,Public,Yes,41.299966,-8.586937,fc:82:a4:90:2b:88,City Park,Rua de Dom Pedro V,Parish of Santo Ildefonso
Wi-Fi Hotspot at Diaz Forge,Private,Yes,41.157229,-8.599303,ac:ad:9b:54:e6:c3,Suburbs,Avenida da Boavista,Parish of Santo Ildefonso
Wi-Fi Hotspot at Taylor Shoals,Public,Yes,41.250889,-8.528931,40:db:51:52:a5:55,Suburbs,Rua de Santa Catarina,Parish of Massarelos
Wi-Fi Hotspot at Todd Path,Public,Yes,41.162222,-8.664527,04:47:31:e7:9e:1a,Residential Area,Rua do Bonfim,Parish of Santo Ildefonso
Wi-Fi Hotspot at Anthony Lock,Private,Yes,41.188104,-8.517221,78:22:a4:ad:89:62,Residential Area,Rua de Santa Catarina,Parish of Lordelo do Ouro
Wi-Fi Hotspot at Kevin Common,Public,Yes,41.234418,-8.69386,7c:11:1a:9d:19:3f,City Park,Rua do Bonfim,Parish of Santo Ildefonso
Wi-Fi Hotspot at Nichols Parkway,Public,Yes,41.243883,-8.530354,10:17:37:40:00:8d,Suburbs,Avenida dos Aliados,Parish of Massarelos
Wi-Fi Hotspot at Melissa Crossroad,Public,Yes,41.22308,-8.597621,58:af:59:39:89:cf,City Center,Avenida da Boavista,Parish of Cedofeita
Wi-Fi Hotspot at Roberts Heights,Public,Yes,41.100075,-8.659883,3a:fa:b5:81:9d:35,City Park,Rua do Bonfim,Parish of Cedofeita
Wi-Fi Hotspot at Burke Passage,Private,Yes,41.178201,-8.617565,66:4f:0b:77:69:b8,City Park,Rua de Santa Catarina,Parish of Cedofeita
Wi-Fi Hotspot at Dustin Run,Private,Yes,41.225682,-8.677664,f6:5c:a9:dd:44:9a,City Center,Rua do Bonfim,Parish of Massarelos
Wi-Fi Hotspot at Thornton Lock,Private,Yes,41.233119,-8.653454,50:09:6d:39:3c:e6,City Park,Avenida da Boavista,Parish of Lordelo do Ouro
Wi-Fi Hotspot at Lloyd Path,Public,Yes,41.268611,-8.537309,3a:81:24:fb:1d:1c,City Center,Rua de Santa Catarina,Parish of Massarelos
Wi-Fi Hotspot at Day Turnpike,Public,Yes,41.199562,-8.507882,12:85:06:08:39:b7,Downtown,Rua do Bonfim,Parish of Lordelo do Ouro
Wi-Fi Hotspot at Darrell Shoals,Private,Yes,41.15364,-8.509067,58:46:7a:88:76:18,Downtown,Rua de Santa Catarina,Parish of Cedofeita
Wi-Fi Hotspot at Luis Wells,Public,Yes,41.116839,-8.589548,c0:b4:66:2d:09:2e,Residential Area,Rua de Santa Catarina,Parish of Santo Ildefonso
Wi-Fi Hotspot at Lawrence Island,Public,Yes,41.140356,-8.507583,1e:bb:4a:cb:8f:c6,Downtown,Rua de Dom Pedro V,Parish of Massarelos
Wi-Fi Hotspot at Fisher Stravenue,Public,Yes,41.153954,-8.675316,86:3f:ba:eb:e7:f8,Residential Area,Avenida da Boavista,Parish of Cedofeita
Wi-Fi Hotspot at Harris Plaza,Private,Yes,41.18269,-8.627031,a4:2c:22:4c:49:f4,City Park,Rua do Bonfim,Parish of Massarelos
Wi-Fi Hotspot at Melissa View,Public,Yes,41.168068,-8.515201,1c:28:36:96:72:a0,City Center,Avenida da Boavista,Parish of Cedofeita
Wi-Fi Hotspot at Melissa Tunnel,Private,Yes,41.145369,-8.660699,f4:c7:ed:f7:0e:c4,City Park,Avenida dos Aliados,Parish of Lordelo do Ouro
Wi-Fi Hotspot at Joan Radial,Public,Yes,41.17898,-8.632746,ea:ee:c9:8d:ef:27,Residential Area,Avenida da Boavista,Parish of Lordelo do Ouro
Wi-Fi Hotspot at Martin Ranch,Public,Yes,41.2229,-8.625374,4a:5b:1e:5a:53:49,Downtown,Rua do Bonfim,Parish of Massarelos
Wi-Fi Hotspot at Powell Mills,Private,Yes,41.197155,-8.552541,7e:21:76:c5:b4:46,Downtown,Avenida dos Aliados,Parish of Lordelo do Ouro
Wi-Fi Hotspot at Rodriguez Rapids,Public,Yes,41.159126,-8.587261,16:0c:43:9b:8a:5c,City Park,Rua de Santa Catarina,Parish of Lordelo do Ouro
Wi-Fi Hotspot at Ryan Lodge,Private,Yes,41.181089,-8.67387,b2:eb:84:ed:c6:60,City Center,Avenida dos Aliados,Parish of Massarelos
Wi-Fi Hotspot at Kennedy Street,Private,Yes,41.183903,-8.539621,94:79:2a:c5:87:04,Downtown,Rua de Santa Catarina,Parish of Cedofeita
Wi-Fi Hotspot at William Tunnel,Private,Yes,41.127955,-8.536363,a8:79:0c:ec:96:c8,Residential Area,Avenida dos Aliados,Parish of Santo Ildefonso
Wi-Fi Hotspot at Brooke Burgs,Private,Yes,41.247331,-8.525201,92:7a:6d:0d:bc:79,City Center,Rua de Dom Pedro V,Parish of Massarelos
Wi-Fi Hotspot at Thompson Highway,Public,Yes,41.224752,-8.521213,96:43:bf:82:38:1c,City Center,Rua de Santa Catarina,Parish of Massarelos
Wi-Fi Hotspot at Curtis Park,Public,Yes,41.278872,-8.586738,5e:83:1a:9d:0d:83,City Park,Avenida da Boavista,Parish of Lordelo do Ouro
Wi-Fi Hotspot at Samuel Forges,Public,Yes,41.171164,-8.646309,74:64:63:54:92:20,Downtown,Avenida da Boavista,Parish of Lordelo do Ouro
Wi-Fi Hotspot at Warren Roads,Private,Yes,41.146337,-8.597789,ac:5c:df:fa:a3:07,City Center,Rua de Dom Pedro V,Parish of Lordelo do Ouro
Wi-Fi Hotspot at Houston Plains,Private,Yes,41.256125,-8.553493,92:47:3a:f2:f7:c3,Suburbs,Rua de Santa Catarina,Parish of Massarelos
Wi-Fi Hotspot at Kramer Knoll,Public,Yes,41.184339,-8.650384,d6:a3:5c:e7:dd:de,Downtown,Rua do Bonfim,Parish of Lordelo do Ouro
Wi-Fi Hotspot at Lance Keys,Public,Yes,41.118696,-8.628496,3e:1a:a5:52:27:a4,City Center,Rua de Dom Pedro V,Parish of Massarelos
Wi-Fi Hotspot at Richard Gateway,Public,Yes,41.121442,-8.501738,d2:ab:31:44:58:e3,Suburbs,Avenida da Boavista,Parish of Santo Ildefonso
Wi-Fi Hotspot at David Underpass,Private,Yes,41.190513,-8.588925,30:7a:7b:93:0d:21,City Park,Avenida dos Aliados,Parish of Lordelo do Ouro
Wi-Fi Hotspot at Carrie Haven,Private,Yes,41.145359,-8.637815,1c:c3:be:2f:9a:ab,City Center,Avenida da Boavista,Parish of Santo Ildefonso
Wi-Fi Hotspot at Yates Freeway,Private,Yes,41.281409,-8.527456,8e:8b:46:71:3b:c3,Residential Area,Rua do Bonfim,Parish of Cedofeita
Wi-Fi Hotspot at King Shoals,Public,Yes,41.291245,-8.605223,48:a4:c1:25:16:b9,Residential Area,Rua de Dom Pedro V,Parish of Lordelo do Ouro
Wi-Fi Hotspot at Robert Harbor,Public,Yes,41.148176,-8.548224,a6:2d:2c:01:af:9e,Residential Area,Rua de Dom Pedro V,Parish of Massarelos
Wi-Fi Hotspot at Knapp Walk,Public,Yes,41.287324,-8.515137,50:32:cb:d9:90:89,Residential Area,Rua do Bonfim,Parish of Cedofeita
Wi-Fi Hotspot at Holland Underpass,Private,Yes,41.132272,-8.638783,ec:9e:62:fe:a3:52,Residential Area,Rua de Santa Catarina,Parish of Cedofeita
Wi-Fi Hotspot at Brian Dam,Public,Yes,41.169633,-8.679226,6a:3c:d1:8a:d8:c0,City Park,Rua de Santa Catarina,Parish of Santo Ildefonso
Wi-Fi Hotspot at Sheri Dam,Private,Yes,41.141838,-8.522855,42:bf:9e:6f:b3:bc,Residential Area,Rua de Santa Catarina,Parish of Cedofeita
Wi-Fi Hotspot at Richard Passage,Private,Yes,41.112194,-8.665964,04:7f:fe:d1:ee:a4,Residential Area,Rua de Santa Catarina,Parish of Cedofeita
Wi-Fi Hotspot at Shea Stream,Public,Yes,41.299212,-8.55172,fc:ef:27:1c:1a:47,City Center,Avenida dos Aliados,Parish of Massarelos
Wi-Fi Hotspot at Eric Curve,Public,Yes,41.197566,-8.631394,ee:db:ec:73:43:dc,Residential Area,Avenida dos Aliados,Parish of Cedofeita
Wi-Fi Hotspot at Smith Coves,Private,Yes,41.293414,-8.513997,f8:9b:12:74:6f:4c,City Center,Avenida da Boavista,Parish of Lordelo do Ouro
Wi-Fi Hotspot at Castillo Ports,Public,Yes,41.103177,-8.698421,ba:b3:23:dd:53:fd,City Center,Avenida da Boavista,Parish of Lordelo do Ouro
Wi-Fi Hotspot at Theresa Way,Private,Yes,41.127818,-8.5419,44:dd:dd:c6:66:c2,City Center,Avenida da Boavista,Parish of Lordelo do Ouro
Wi-Fi Hotspot at Gregory Underpass,Private,Yes,41.191406,-8.646364,6c:65:91:65:64:3c,Suburbs,Avenida dos Aliados,Parish of Cedofeita
Wi-Fi Hotspot at Jessica Alley,Private,Yes,41.224283,-8.667239,24:03:e0:81:cc:44,Downtown,Rua de Santa Catarina,Parish of Santo Ildefonso
Wi-Fi Hotspot at Scott Oval,Private,Yes,41.250949,-8.548245,bc:83:d2:43:f9:9e,Residential Area,Rua do Bonfim,Parish of Massarelos
Wi-Fi Hotspot at Annette Camp,Public,Yes,41.135005,-8.644306,34:44:f1:34:a9:71,Residential Area,Avenida da Boavista,Parish of Santo Ildefonso
Wi-Fi Hotspot at Jones Stravenue,Public,Yes,41.183709,-8.626168,42:6d:d4:99:f2:5b,Downtown,Rua de Santa Catarina,Parish of Santo Ildefonso
Wi-Fi Hotspot at Nielsen Causeway,Public,Yes,41.194778,-8.634488,f2:0d:2f:9e:fb:d5,City Center,Rua de Santa Catarina,Parish of Santo Ildefonso
Wi-Fi Hotspot at Wood Parks,Private,Yes,41.273421,-8.691281,4e:a0:44:5e:a6:dc,Downtown,Rua de Santa Catarina,Parish of Massarelos
Wi-Fi Hotspot at Ross Unions,Private,Yes,41.26446,-8.574079,ee:b2:e4:bc:92:9d,Downtown,Avenida da Boavista,Parish of Santo Ildefonso
Wi-Fi Hotspot at William Green,Private,Yes,41.154494,-8.595236,62:73:df:e5:49:b7,Residential Area,Rua de Dom Pedro V,Parish of Lordelo do Ouro
Wi-Fi Hotspot at Ian Forks,Public,Yes,41.278335,-8.667593,4c:f6:48:f5:86:fb,Residential Area,Avenida da Boavista,Parish of Lordelo do Ouro
Wi-Fi Hotspot at Guerra Circle,Public,Yes,41.226237,-8.591205,92:bb:05:8a:50:1e,City Park,Rua de Dom Pedro V,Parish of Massarelos
Wi-Fi Hotspot at Cruz Fall,Public,Yes,41.229405,-8.631624,00:e4:92:56:18:9b,Residential Area,Avenida dos Aliados,Parish of Lordelo do Ouro
Wi-Fi Hotspot at Ashley Haven,Private,Yes,41.176087,-8.587667,bc:54:f8:86:2a:6d,Downtown,Avenida da Boavista,Parish of Cedofeita
Wi-Fi Hotspot at Baldwin Island,Private,Yes,41.170811,-8.588244,4c:dd:b1:6f:d9:9f,City Center,Rua do Bonfim,Parish of Lordelo do Ouro
Wi-Fi Hotspot at Colton Isle,Public,Yes,41.148039,-8.694493,1a:93:1d:6f:bb:7c,City Center,Avenida dos Aliados,Parish of Santo Ildefonso
Wi-Fi Hotspot at Andrew Centers,Public,Yes,41.116409,-8.638021,7c:f7:33:05:ac:f5,Residential Area,Avenida da Boavista,Parish of Santo Ildefonso
Wi-Fi Hotspot at Stone Wells,Public,Yes,41.200038,-8.697903,ba:3c:2b:45:f1:09,Residential Area,Rua do Bonfim,Parish of Massarelos
Wi-Fi Hotspot at Bailey Plain,Public,Yes,41.105615,-8.611433,1c:3f:52:87:df:f6,Residential Area,Rua de Santa Catarina,Parish of Lordelo do Ouro
Wi-Fi Hotspot at Christopher Shoal,Public,Yes,41.224946,-8.574613,12:c8:9d:44:59:42,Suburbs,Rua do Bonfim,Parish of Massarelos
Wi-Fi Hotspot at Mary Courts,Public,Yes,41.103348,-8.676743,f6:68:a5:61:49:e4,City Park,Avenida da Boavista,Parish of Massarelos
Wi-Fi Hotspot at Alexis Stravenue,Public,Yes,41.102996,-8.621862,48:e7:56:ff:1c:4d,City Park,Avenida dos Aliados,Parish of Cedofeita
Wi-Fi Hotspot at Benson Cliffs,Private,Yes,41.117412,-8.604648,aa:5e:43:3b:f2:59,Downtown,Rua de Santa Catarina,Parish of Santo Ildefonso
Wi-Fi Hotspot at Crystal Mission,Public,Yes,41.148632,-8.585546,60:0d:93:b1:f4:ad,City Park,Rua do Bonfim,Parish of Santo Ildefonso
Wi-Fi Hotspot at Stephen Canyon,Public,Yes,41.123686,-8.551462,58:2b:04:91:61:11,City Center,Rua do Bonfim,Parish of Massarelos
Wi-Fi Hotspot at Katherine Road,Public,Yes,41.292861,-8.5155,a6:80:97:f7:ad:bc,Suburbs,Rua de Dom Pedro V,Parish of Lordelo do Ouro
Wi-Fi Hotspot at Weaver Rest,Public,Yes,41.226663,-8.620603,d6:02:0b:79:98:f2,City Park,Avenida dos Aliados,Parish of Cedofeita
Wi-Fi Hotspot at Torres Lights,Private,Yes,41.227567,-8.666276,7a:b1:7c:e3:7b:77,Residential Area,Avenida dos Aliados,Parish of Massarelos
Wi-Fi Hotspot at Morgan Union,Private,Yes,41.202364,-8.503383,50:54:bf:66:10:8e,City Park,Rua de Santa Catarina,Parish of Santo Ildefonso
Wi-Fi Hotspot at Murphy Bridge,Private,Yes,41.239661,-8.586228,64:4b:38:c0:2e:eb,City Park,Rua de Santa Catarina,Parish of Massarelos
Wi-Fi Hotspot at Jennifer Flats,Public,Yes,41.117343,-8.521537,a6:f2:b2:0d:1c:88,City Park,Avenida dos Aliados,Parish of Lordelo do Ouro
Wi-Fi Hotspot at Carrie Mill,Public,Yes,41.163696,-8.65535,b8:4e:c9:12:7f:56,City Park,Rua de Dom Pedro V,Parish of Santo Ildefonso
Wi-Fi Hotspot at Hall Valleys,Private,Yes,41.102606,-8.539536,8e:5b:2d:67:9d:b8,Suburbs,Avenida dos Aliados,Parish of Cedofeita
Wi-Fi Hotspot at Marc Fall,Public,Yes,41.220141,-8.517699,28:2c:b2:5c:ff:15,City Park,Rua de Dom Pedro V,Parish of Santo Ildefonso
Wi-Fi Hotspot at Lozano Cliff,Private,Yes,41.269622,-8.591028,40:5c:ef:f7:88:5d,City Park,Avenida da Boavista,Parish of Massarelos
Wi-Fi Hotspot at Kayla Ford,Public,Yes,41.186111,-8.641373,d0:8c:29:02:8a:cc,Suburbs,Rua de Santa Catarina,Parish of Massarelos
Wi-Fi Hotspot at Finley Path,Private,Yes,41.13485,-8.592187,14:25:2a:56:e5:fe,Downtown,Rua de Dom Pedro V,Parish of Cedofeita
Wi-Fi Hotspot at Cynthia Via,Public,Yes,41.137136,-8.696636,1c:c9:b2:47:9c:c6,City Center,Rua de Dom Pedro V,Parish of Massarelos
Wi-Fi Hotspot at Bianca Row,Public,Yes,41.125223,-8.575362,6a:a5:df:f1:86:da,Downtown,Rua de Dom Pedro V,Parish of Lordelo do Ouro
Wi-Fi Hotspot at Gregory Creek,Public,Yes,41.143306,-8.527178,00:57:be:07:c7:0b,Downtown,Rua de Dom Pedro V,Parish of Lordelo do Ouro
Wi-Fi Hotspot at Sean Land,Public,Yes,41.272042,-8.565037,66:30:a3:44:64:5b,City Center,Rua de Santa Catarina,Parish of Lordelo do Ouro
Wi-Fi Hotspot at Fox Extensions,Public,Yes,41.115412,-8.581247,28:7b:1c:93:93:a7,City Park,Rua de Dom Pedro V,Parish of Cedofeita
Wi-Fi Hotspot at Steven Extensions,Public,Yes,41.141282,-8.602404,62:95:33:18:d8:39,City Center,Avenida da Boavista,Parish of Santo Ildefonso
Wi-Fi Hotspot at Kelly Mountain,Public,Yes,41.148345,-8.623775,e4:22:ca:1f:41:f3,Residential Area,Avenida da Boavista,Parish of Lordelo do Ouro
Wi-Fi Hotspot at Garcia Crescent,Public,Yes,41.278283,-8.592407,2e:77:14:9c:d5:3b,Residential Area,Avenida dos Aliados,Parish of Cedofeita
Wi-Fi Hotspot at Ross Glen,Public,Yes,41.174525,-8.505311,74:de:87:6a:c0:47,Residential Area,Rua de Santa Catarina,Parish of Santo Ildefonso
Wi-Fi Hotspot at Moore River,Public,Yes,41.20311,-8.698411,8a:3e:11:4c:74:9d,City Park,Rua do Bonfim,Parish of Massarelos
Wi-Fi Hotspot at Mason Gateway,Private,Yes,41.199097,-8.564334,58:38:34:a4:12:4e,Residential Area,Avenida dos Aliados,Parish of Lordelo do Ouro
Wi-Fi Hotspot at Watson Valleys,Public,Yes,41.154561,-8.579853,b0:09:0e:c5:7a:2a,Suburbs,Avenida dos Aliados,Parish of Massarelos
